OBJECT_NAME,OBJECT_ID,EPOCH,MEAN_MOTION,ECCENTRICITY,INCLINATION,RA_OF_ASC_NODE,ARG_OF_PERICENTER,MEAN_ANOMALY,EPHEMERIS_TYPE,CLASSIFICATION_TYPE,NORAD_CAT_ID,ELEMENT_SET_NO,REV_AT_EPOCH,BSTAR,MEAN_MOTION_DOT,MEAN_MOTION_DDOT
STARLINK-30323,2023-122C,2026-07-15T00:44:49.747776,15.27579046,.00014464,43.0018,82.1902,258.4700,101.5989,0,U,57634,999,16181,.20754443E-4,.309E-5,0
STARLINK-30329,2023-122D,2026-07-15T17:12:34.429824,15.27580204,.00015013,42.9998,89.7673,285.7703,74.2983,0,U,57635,999,16178,.52627821E-4,.1186E-4,0
STARLINK-30330,2023-122E,2026-07-15T01:36:34.444512,15.27570085,.00016036,42.9986,93.4905,271.1129,88.9539,0,U,57636,999,16168,-.6133891E-5,-.431E-5,0
STARLINK-30311,2023-122F,2026-07-15T03:30:51.481152,15.27596815,.00016038,43.0068,92.3730,262.0383,98.0286,0,U,57637,999,16170,-.18145208E-3,-.5255E-4,0
STARLINK-30328,2023-122G,2026-07-15T00:33:42.382080,15.27592046,.00014312,43.0032,82.0766,268.0943,91.9745,0,U,57638,999,16182,.37165168E-4,.761E-5,0
STARLINK-30326,2023-122H,2026-07-15T02:33:42.828480,15.27573778,.00011333,43.0034,92.9216,276.2251,83.8472,0,U,57639,999,16169,.863585E-5,-.24E-6,0
STARLINK-30324,2023-122J,2026-07-14T23:51:17.699040,15.27583050,.00013789,43.0024,93.7974,258.3393,101.7304,0,U,57640,999,16166,.42194797E-4,.899E-5,0
STARLINK-30312,2023-122K,2026-07-15T01:47:27.293280,15.27576253,.00014308,43.0004,92.6921,263.9385,96.1304,0,U,57641,999,16169,-.32250716E-4,-.1149E-4,0
STARLINK-30263,2023-122L,2026-07-15T02:02:15.323712,15.27578232,.00008275,43.0037,92.7687,258.9171,101.1588,0,U,57642,999,16169,.18163933E-4,.238E-5,0
STARLINK-30280,2023-122M,2026-07-15T17:54:54.516384,15.27583952,.00012856,43.0036,89.1347,272.2993,87.7712,0,U,57643,999,16179,.78165483E-4,.189E-4,0
STARLINK-30247,2023-122N,2026-07-15T17:49:23.072160,15.27573346,.00010416,43.0036,89.1113,255.7702,104.3034,0,U,57644,999,16179,.11165885E-3,.2811E-4,0
STARLINK-30277,2023-122P,2026-07-15T08:48:01.350720,15.27559793,.00020281,43.0002,309.3465,287.6681,72.3949,0,U,57645,999,16340,.17894169E-3,.4662E-4,0
STARLINK-30265,2023-122Q,2026-07-15T22:17:02.217696,15.27576750,.00012262,43.0030,87.9206,264.1973,95.8739,0,U,57646,999,16182,.17520054E-4,.22E-5,0
STARLINK-30286,2023-122R,2026-07-15T18:00:28.306368,15.27577774,.00010184,43.0032,89.1623,265.8471,94.2264,0,U,57647,999,16179,.13515334E-4,.11E-5,0
STARLINK-30243,2023-122S,2026-07-15T18:26:20.770080,15.27588456,.00016423,43.0030,89.2899,267.9305,92.1359,0,U,57648,999,16179,.45667646E-4,.995E-5,0
STARLINK-30299,2023-122U,2026-07-15T00:50:17.481984,15.27590214,.00012862,43.0044,93.2520,278.5147,81.5559,0,U,57650,999,16168,.5745218E-5,-.104E-5,0
STARLINK-30294,2023-122V,2026-07-14T22:52:10.786368,15.27573895,.0001547,43.0047,82.4775,265.9568,94.1107,0,U,57651,999,16180,.12591E-4,.84E-6,0
STARLINK-30276,2023-122W,2026-07-15T02:39:14.359104,15.27638564,.00018625,43.0027,92.9567,272.1696,87.8942,0,U,57652,999,16169,-.45210549E-3,-.12705E-3,0
STARLINK-30289,2023-122X,2026-07-15T17:25:35.417568,15.27587832,.00011522,43.0043,78.7679,260.3163,99.7559,0,U,57653,999,16190,.28665833E-4,.527E-5,0
STARLINK-30267,2023-124A,2026-07-15T17:38:29.016384,15.34396242,.00010034,53.1622,331.9375,100.3773,259.7343,0,U,57663,999,16317,-.271027E-5,-.468E-5,0
STARLINK-30298,2023-124C,2026-07-15T16:34:50.589120,15.34410271,.00013826,53.1618,331.6867,48.8039,311.3083,0,U,57665,999,16317,.11600636E-3,.3546E-4,0
STARLINK-30301,2023-124D,2026-07-15T18:09:03.697056,15.34708145,.00021823,53.1590,32.1043,99.6820,260.4430,0,U,57666,999,16230,.41344081E-3,.13755E-3,0
STARLINK-30275,2023-124E,2026-07-15T15:31:20.127936,15.34387560,.0000761,53.1617,331.9182,74.8680,285.2407,0,U,57667,999,16316,-.55713E-5,-.564E-5,0
STARLINK-30278,2023-124F,2026-07-15T16:07:41.947392,15.34392665,.00011684,53.1611,332.0982,91.3525,268.7611,0,U,57668,999,16316,-.15518648E-4,-.9E-5,0
STARLINK-30271,2023-124G,2026-07-15T12:27:12.442464,15.31699801,.00009796,53.1618,332.4319,87.2292,272.8821,0,U,57669,999,16314,.16198283E-4,.138E-5,0
STARLINK-30322,2023-124H,2026-07-15T18:48:00.752256,15.34393089,.0001272,53.1624,331.3517,85.3051,274.8097,0,U,57670,999,16318,.45139863E-4,.1149E-4,0
STARLINK-30296,2023-124J,2026-07-15T20:18:47.570688,15.34400049,.00009137,53.1625,331.1654,91.3319,268.7788,0,U,57671,999,16319,.3640322E-5,-.253E-5,0
STARLINK-30274,2023-124K,2026-07-15T19:39:29.071008,15.34346291,.00009049,53.1624,331.1052,55.1739,304.9349,0,U,57672,999,16319,-.15378104E-3,-.5559E-4,0
STARLINK-30316,2023-124L,2026-07-15T18:17:44.355552,15.34389146,.00007972,53.1621,331.3601,82.9489,277.1604,0,U,57673,999,16318,.11692565E-4,.19E-6,0
STARLINK-30313,2023-124P,2026-07-15T18:08:46.383360,15.30189555,.00012378,53.1627,332.1287,92.3315,267.7827,0,U,57676,999,16317,.10422177E-4,-.51E-6,0
