STARLINK-30323          
1 57634U 23122C   26196.03113134  .00000309  00000+0  20754-4 0  9998
2 57634  43.0018  82.1902 0001446 258.4700 101.5989 15.27579046161812
STARLINK-30329          
1 57635U 23122D   26196.71706516  .00001186  00000+0  52628-4 0  9995
2 57635  42.9998  89.7673 0001501 285.7703  74.2983 15.27580204161788
STARLINK-30330          
1 57636U 23122E   26196.06706533 -.00000431  00000+0 -61339-5 0  9997
2 57636  42.9986  93.4905 0001603 271.1129  88.9539 15.27570085161684
STARLINK-30311          
1 57637U 23122F   26196.14642918 -.00005255  00000+0 -18145-3 0  9997
2 57637  43.0068  92.3730 0001603 262.0383  98.0286 15.27596815161706
STARLINK-30328          
1 57638U 23122G   26196.02340720  .00000761  00000+0  37165-4 0  9990
2 57638  43.0032  82.0766 0001431 268.0943  91.9745 15.27592046161827
STARLINK-30326          
1 57639U 23122H   26196.10674570 -.00000024  00000+0  86358-5 0  9995
2 57639  43.0034  92.9216 0001133 276.2251  83.8472 15.27573778161695
STARLINK-30324          
1 57640U 23122J   26195.99395485  .00000899  00000+0  42195-4 0  9997
2 57640  43.0024  93.7974 0001378 258.3393 101.7304 15.27583050161660
STARLINK-30312          
1 57641U 23122K   26196.07462145 -.00001149  00000+0 -32251-4 0  9999
2 57641  43.0004  92.6921 0001430 263.9385  96.1304 15.27576253161698
STARLINK-30263          
1 57642U 23122L   26196.08489958  .00000238  00000+0  18164-4 0  9995
2 57642  43.0037  92.7687 0000827 258.9171 101.1588 15.27578232161691
STARLINK-30280          
1 57643U 23122M   26196.74646431  .00001890  00000+0  78165-4 0  9992
2 57643  43.0036  89.1347 0001285 272.2993  87.7712 15.27583952161798
STARLINK-30247          
1 57644U 23122N   26196.74262815  .00002811  00000+0  11166-3 0  9994
2 57644  43.0036  89.1113 0001041 255.7702 104.3034 15.27573346161793
STARLINK-30277          
1 57645U 23122P   26196.36668230  .00004662  00000+0  17894-3 0  9994
2 57645  43.0002 309.3465 0002028 287.6681  72.3949 15.27559793163409
STARLINK-30265          
1 57646U 23122Q   26196.92849789  .00000220  00000+0  17520-4 0  9990
2 57646  43.0030  87.9206 0001226 264.1973  95.8739 15.27576750161829
STARLINK-30286          
1 57647U 23122R   26196.75032762  .00000110  00000+0  13515-4 0  9995
2 57647  43.0032  89.1623 0001018 265.8471  94.2264 15.27577774161798
STARLINK-30243          
1 57648U 23122S   26196.76829595  .00000995  00000+0  45668-4 0  9990
2 57648  43.0030  89.2899 0001642 267.9305  92.1359 15.27588456161796
STARLINK-30299          
1 57650U 23122U   26196.03492456 -.00000104  00000+0  57452-5 0  9993
2 57650  43.0044  93.2520 0001286 278.5147  81.5559 15.27590214161683
STARLINK-30294          
1 57651U 23122V   26195.95290262  .00000084  00000+0  12591-4 0  9995
2 57651  43.0047  82.4775 0001547 265.9568  94.1107 15.27573895161805
STARLINK-30276          
1 57652U 23122W   26196.11058286 -.00012705  00000+0 -45211-3 0  9992
2 57652  43.0027  92.9567 0001862 272.1696  87.8942 15.27638564161699
STARLINK-30289          
1 57653U 23122X   26196.72610437  .00000527  00000+0  28666-4 0  9995
2 57653  43.0043  78.7679 0001152 260.3163  99.7559 15.27587832161905
STARLINK-30267          
1 57663U 23124A   26196.73505806 -.00000468  00000+0 -27103-5 0  9994
2 57663  53.1622 331.9375 0001003 100.3773 259.7343 15.34396242163174
STARLINK-30298          
1 57665U 23124C   26196.69086330  .00003546  00000+0  11601-3 0  9999
2 57665  53.1618 331.6867 0001382  48.8039 311.3083 15.34410271163170
STARLINK-30301          
1 57666U 23124D   26196.75629279  .00013755  00000+0  41344-3 0  9992
2 57666  53.1590  32.1043 0002182  99.6820 260.4430 15.34708145162304
STARLINK-30275          
1 57667U 23124E   26196.64676074 -.00000564  00000+0 -55713-5 0  9999
2 57667  53.1617 331.9182 0000761  74.8680 285.2407 15.34387560163167
STARLINK-30278          
1 57668U 23124F   26196.67201328 -.00000900  00000+0 -15519-4 0  9992
2 57668  53.1611 332.0982 0001168  91.3525 268.7611 15.34392665163161
STARLINK-30271          
1 57669U 23124G   26196.51889401  .00000138  00000+0  16198-4 0  9995
2 57669  53.1618 332.4319 0000979  87.2292 272.8821 15.31699801163147
STARLINK-30322          
1 57670U 23124H   26196.78334204  .00001149  00000+0  45140-4 0  9994
2 57670  53.1624 331.3517 0001272  85.3051 274.8097 15.34393089163186
STARLINK-30296          
1 57671U 23124J   26196.84638392 -.00000253  00000+0  36403-5 0  9996
2 57671  53.1625 331.1654 0000913  91.3319 268.7788 15.34400049163198
STARLINK-30274          
1 57672U 23124K   26196.81908647 -.00005559  00000+0 -15378-3 0  9998
2 57672  53.1624 331.1052 0000904  55.1739 304.9349 15.34346291163198
STARLINK-30316          
1 57673U 23124L   26196.76231893  .00000019  00000+0  11693-4 0  9996
2 57673  53.1621 331.3601 0000797  82.9489 277.1604 15.34389146163188
STARLINK-30313          
1 57676U 23124P   26196.75609240 -.00000051  00000+0  10422-4 0  9999
2 57676  53.1627 332.1287 0001237  92.3315 267.7827 15.30189555163178
